start=new Date('2022-06-20T00:00:00.000Z').valueOf();
sats=[{"REV_AT_EPOCH":"7311","OBJECT_TYPE":"PAYLOAD","EPOCH":"2022-06-19T20:30:20.321568","NORAD_CAT_ID":"47728","APOAPSIS":"548.361","PERIAPSIS":"546.136","SITE":"AFETR","MEAN_MOTION":"15.06388609","OBJECT_ID":"2021-017G","SEMIMAJOR_AXIS":"6925.383","MEAN_ANOMALY":"300.2042","MEAN_MOTION_DOT":"-0.00000442","TLE_LINE2":"2 47728  53.0526 181.6756 0001606  59.9106 300.2042 15.06388609 73117","CENTER_NAME":"EARTH","RCS_SIZE":"LARGE","EPHEMERIS_TYPE":"0","BSTAR":"-0.00001076200000","GP_ID":"206447667","REF_FRAME":"TEME","INCLINATION":"53.0526","PERIOD":"95.593","DECAY_DATE":null,"MEAN_ELEMENT_THEORY":"SGP4","FILE":"3497669","ARG_OF_PERICENTER":"59.9106","TLE_LINE1":"1 47728U 21017G   22170.85440187 -.00000442  00000-0 -10762-4 0  9990","ELEMENT_SET_NO":"999","RA_OF_ASC_NODE":"181.6756","COUNTRY_CODE":"US","OBJECT_NAME":"STARLINK-2131","TIME_SYSTEM":"UTC","ECCENTRICITY":"0.00016060","LAUNCH_DATE":"2021-03-04","CLASSIFICATION_TYPE":"U","MEAN_MOTION_DDOT":"0.0000000000000"},{"TLE_LINE1":"1 47729U 21017H   22170.88344902  .00001410  00000-0  11354-3 0  9993","ARG_OF_PERICENTER":"76.0624","FILE":"3497669","MEAN_ELEMENT_THEORY":"SGP4","RA_OF_ASC_NODE":"126.7423","ELEMENT_SET_NO":"999","OBJECT_NAME":"STARLINK-2132","TIME_SYSTEM":"UTC","COUNTRY_CODE":"US","CLASSIFICATION_TYPE":"U","MEAN_MOTION_DDOT":"0.0000000000000","LAUNCH_DATE":"2021-03-04","ECCENTRICITY":"0.00015680","OBJECT_TYPE":"PAYLOAD","EPOCH":"2022-06-19T21:12:09.995328","REV_AT_EPOCH":"7382","SITE":"AFETR","SEMIMAJOR_AXIS":"6925.324","OBJECT_ID":"2021-017H","MEAN_MOTION":"15.06407953","NORAD_CAT_ID":"47729","APOAPSIS":"548.275","PERIAPSIS":"546.103","REF_FRAME":"TEME","GP_ID":"206447914","BSTAR":"0.00011354000000","MEAN_MOTION_DOT":"0.00001410","MEAN_ANOMALY":"284.0539","EPHEMERIS_TYPE":"0","RCS_SIZE":"LARGE","TLE_LINE2":"2 47729  53.0567 126.7423 0001568  76.0624 284.0539 15.06407953 73828","CENTER_NAME":"EARTH","PERIOD":"95.592","DECAY_DATE":null,"INCLINATION":"53.0567"},{"FILE":"3497669","ARG_OF_PERICENTER":"47.6045","TLE_LINE1":"1 47730U 21017J   22170.81064154  .00001988  00000-0  15234-3 0  9997","MEAN_ELEMENT_THEORY":"SGP4","RA_OF_ASC_NODE":"196.8755","ELEMENT_SET_NO":"999","TIME_SYSTEM":"UTC","OBJECT_NAME":"STARLINK-2140","COUNTRY_CODE":"US","MEAN_MOTION_DDOT":"0.0000000000000","CLASSIFICATION_TYPE":"U","LAUNCH_DATE":"2021-03-04","ECCENTRICITY":"0.00020040","EPOCH":"2022-06-19T19:27:19.429056","OBJECT_TYPE":"PAYLOAD","REV_AT_EPOCH":"7284","MEAN_MOTION":"15.06391159","OBJECT_ID":"2021-017J","SEMIMAJOR_AXIS":"6925.376","SITE":"AFETR","PERIAPSIS":"545.853","APOAPSIS":"548.628","NORAD_CAT_ID":"47730","BSTAR":"0.00015234000000","REF_FRAME":"TEME","GP_ID":"206446667","TLE_LINE2":"2 47730  53.0531 196.8755 0002004  47.6045 312.5113 15.06391159 72840","CENTER_NAME":"EARTH","EPHEMERIS_TYPE":"0","RCS_SIZE":"LARGE","MEAN_ANOMALY":"312.5113","MEAN_MOTION_DOT":"0.00001988","DECAY_DATE":null,"PERIOD":"95.593","INCLINATION":"53.0531"},{"PERIOD":"95.592","DECAY_DATE":null,"INCLINATION":"53.0538","BSTAR":"-0.00000090030000","GP_ID":"206446916","REF_FRAME":"TEME","MEAN_ANOMALY":"314.5501","MEAN_MOTION_DOT":"-0.00000295","TLE_LINE2":"2 47731  53.0538 192.1421 0002030  45.5653 314.5501 15.06397130 72914","CENTER_NAME":"EARTH","RCS_SIZE":"LARGE","EPHEMERIS_TYPE":"0","SITE":"AFETR","MEAN_MOTION":"15.06397130","SEMIMAJOR_AXIS":"6925.357","OBJECT_ID":"2021-017K","NORAD_CAT_ID":"47731","APOAPSIS":"548.628","PERIAPSIS":"545.817","OBJECT_TYPE":"PAYLOAD","EPOCH":"2022-06-19T18:00:23.334048","REV_AT_EPOCH":"7291","CLASSIFICATION_TYPE":"U","MEAN_MOTION_DDOT":"0.0000000000000","LAUNCH_DATE":"2021-03-04","ECCENTRICITY":"0.00020300","OBJECT_NAME":"STARLINK-2141","TIME_SYSTEM":"UTC","COUNTRY_CODE":"US","RA_OF_ASC_NODE":"192.1421","ELEMENT_SET_NO":"999","FILE":"3497669","TLE_LINE1":"1 47731U 21017K   22170.75027007 -.00000295  00000-0 -90030-6 0  9999","ARG_OF_PERICENTER":"45.5653","MEAN_ELEMENT_THEORY":"SGP4"},{"DECAY_DATE":null,"PERIOD":"95.592","INCLINATION":"53.0574","GP_ID":"206415359","REF_FRAME":"TEME","BSTAR":"-0.00006541300000","RCS_SIZE":"LARGE","EPHEMERIS_TYPE":"0","TLE_LINE2":"2 47732  53.0574 109.8837 0001453  75.3545 284.7605 15.06396440 74019","CENTER_NAME":"EARTH","MEAN_MOTION_DOT":"-0.00001256","MEAN_ANOMALY":"284.7605","SEMIMAJOR_AXIS":"6925.359","OBJECT_ID":"2021-017L","MEAN_MOTION":"15.06396440","SITE":"AFETR","PERIAPSIS":"546.218","APOAPSIS":"548.231","NORAD_CAT_ID":"47732","OBJECT_TYPE":"PAYLOAD","EPOCH":"2022-06-19T04:36:58.051584","REV_AT_EPOCH":"7401","MEAN_MOTION_DDOT":"0.0000000000000","CLASSIFICATION_TYPE":"U","LAUNCH_DATE":"2021-03-04","ECCENTRICITY":"0.00014530","TIME_SYSTEM":"UTC","OBJECT_NAME":"STARLINK-2142","COUNTRY_CODE":"US","RA_OF_ASC_NODE":"109.8837","ELEMENT_SET_NO":"999","TLE_LINE1":"1 47732U 21017L   22170.19233856 -.00001256  00000-0 -65413-4 0  9992","ARG_OF_PERICENTER":"75.3545","FILE":"3497010","MEAN_ELEMENT_THEORY":"SGP4"},{"PERIAPSIS":"545.946","APOAPSIS":"548.513","NORAD_CAT_ID":"47733","MEAN_MOTION":"15.06394744","SEMIMAJOR_AXIS":"6925.365","OBJECT_ID":"2021-017M","SITE":"AFETR","REV_AT_EPOCH":"7277","OBJECT_TYPE":"PAYLOAD","EPOCH":"2022-06-19T11:20:59.359200","INCLINATION":"53.0545","DECAY_DATE":null,"PERIOD":"95.592","TLE_LINE2":"2 47733  53.0545 203.3764 0001853  45.7656 314.3485 15.06394744 72777","CENTER_NAME":"EARTH","RCS_SIZE":"LARGE","EPHEMERIS_TYPE":"0","MEAN_MOTION_DOT":"0.00001174","MEAN_ANOMALY":"314.3485","BSTAR":"0.00009770200000","REF_FRAME":"TEME","GP_ID":"206415609","ELEMENT_SET_NO":"999","RA_OF_ASC_NODE":"203.3764","MEAN_ELEMENT_THEORY":"SGP4","FILE":"3497010","TLE_LINE1":"1 47733U 21017M   22170.47290925  .00001174  00000-0  97702-4 0  9997","ARG_OF_PERICENTER":"45.7656","LAUNCH_DATE":"2021-03-04","ECCENTRICITY":"0.00018530","MEAN_MOTION_DDOT":"0.0000000000000","CLASSIFICATION_TYPE":"U","COUNTRY_CODE":"US","TIME_SYSTEM":"UTC","OBJECT_NAME":"STARLINK-2143"},{"SITE":"AFETR","MEAN_MOTION":"15.06399033","SEMIMAJOR_AXIS":"6925.352","OBJECT_ID":"2021-017N","APOAPSIS":"548.405","NORAD_CAT_ID":"47734","PERIAPSIS":"546.028","OBJECT_TYPE":"PAYLOAD","EPOCH":"2022-06-19T18:11:00.385440","REV_AT_EPOCH":"7292","PERIOD":"95.592","DECAY_DATE":null,"INCLINATION":"53.0539","BSTAR":"0.00010426000000","REF_FRAME":"TEME","GP_ID":"206446168","MEAN_MOTION_DOT":"0.00001272","MEAN_ANOMALY":"295.5899","CENTER_NAME":"EARTH","TLE_LINE2":"2 47734  53.0539 192.1070 0001716  64.5267 295.5899 15.06399033 72923","RCS_SIZE":"LARGE","EPHEMERIS_TYPE":"0","RA_OF_ASC_NODE":"192.1070","ELEMENT_SET_NO":"999","FILE":"3497669","ARG_OF_PERICENTER":"64.5267","TLE_LINE1":"1 47734U 21017N   22170.75764335  .00001272  00000-0  10426-3 0  9996","MEAN_ELEMENT_THEORY":"SGP4","CLASSIFICATION_TYPE":"U","MEAN_MOTION_DDOT":"0.0000000000000","LAUNCH_DATE":"2021-03-04","ECCENTRICITY":"0.00017160","OBJECT_NAME":"STARLINK-2144","TIME_SYSTEM":"UTC","COUNTRY_CODE":"US"},{"PERIAPSIS":"545.974","APOAPSIS":"548.426","NORAD_CAT_ID":"47735","SEMIMAJOR_AXIS":"6925.335","OBJECT_ID":"2021-017P","MEAN_MOTION":"15.06404436","SITE":"AFETR","REV_AT_EPOCH":"7396","OBJECT_TYPE":"PAYLOAD","EPOCH":"2022-06-19T20:09:47.168064","INCLINATION":"53.0561","DECAY_DATE":null,"PERIOD":"95.592","RCS_SIZE":"LARGE","EPHEMERIS_TYPE":"0","CENTER_NAME":"EARTH","TLE_LINE2":"2 47735  53.0561 116.8991 0001770  51.4331 308.6817 15.06404436 73966","MEAN_MOTION_DOT":"0.00001877","MEAN_ANOMALY":"308.6817","GP_ID":"206446416","REF_FRAME":"TEME","BSTAR":"0.00014487000000","ELEMENT_SET_NO":"999","RA_OF_ASC_NODE":"116.8991","MEAN_ELEMENT_THEORY":"SGP4","TLE_LINE1":"1 47735U 21017P   22170.84012926  .00001877  00000-0  14487-3 0  9991","ARG_OF_PERICENTER":"51.4331","FILE":"3497669","ECCENTRICITY":"0.00017700","LAUNCH_DATE":"2021-03-04","MEAN_MOTION_DDOT":"0.0000000000000","CLASSIFICATION_TYPE":"U","COUNTRY_CODE":"US","TIME_SYSTEM":"UTC","OBJECT_NAME":"STARLINK-2146"},{"ELEMENT_SET_NO":"999","RA_OF_ASC_NODE":"182.2573","MEAN_ELEMENT_THEORY":"SGP4","ARG_OF_PERICENTER":"53.6451","TLE_LINE1":"1 47736U 21017Q   22170.72539901  .00001173  00000-0  97678-4 0  9999","FILE":"3497669","LAUNCH_DATE":"2021-03-04","ECCENTRICITY":"0.00017380","CLASSIFICATION_TYPE":"U","MEAN_MOTION_DDOT":"0.0000000000000","COUNTRY_CODE":"US","OBJECT_NAME":"STARLINK-2147","TIME_SYSTEM":"UTC","NORAD_CAT_ID":"47736","APOAPSIS":"548.448","PERIAPSIS":"546.040","SITE":"AFETR","SEMIMAJOR_AXIS":"6925.379","OBJECT_ID":"2021-017Q","MEAN_MOTION":"15.06390095","REV_AT_EPOCH":"7309","OBJECT_TYPE":"PAYLOAD","EPOCH":"2022-06-19T17:24:34.474464","INCLINATION":"53.0534","PERIOD":"95.593","DECAY_DATE":null,"MEAN_ANOMALY":"306.4698","MEAN_MOTION_DOT":"0.00001173","RCS_SIZE":"LARGE","EPHEMERIS_TYPE":"0","CENTER_NAME":"EARTH","TLE_LINE2":"2 47736  53.0534 182.2573 0001738  53.6451 306.4698 15.06390095 73093","GP_ID":"206447668","REF_FRAME":"TEME","BSTAR":"0.00009767800000"},{"RA_OF_ASC_NODE":"98.9126","ELEMENT_SET_NO":"999","FILE":"3497010","ARG_OF_PERICENTER":"44.8172","TLE_LINE1":"1 47737U 21017R   22170.50256163 -.00002808  00000-0 -82213-4 0  9999","MEAN_ELEMENT_THEORY":"SGP4","MEAN_MOTION_DDOT":"0.0000000000000","CLASSIFICATION_TYPE":"U","LAUNCH_DATE":"2021-03-04","ECCENTRICITY":"0.00023070","TIME_SYSTEM":"UTC","OBJECT_NAME":"STARLINK-2148","COUNTRY_CODE":"US","MEAN_MOTION":"15.30367978","SEMIMAJOR_AXIS":"6852.851","OBJECT_ID":"2021-017R","SITE":"AFETR","PERIAPSIS":"473.135","APOAPSIS":"476.297","NORAD_CAT_ID":"47737","OBJECT_TYPE":"PAYLOAD","EPOCH":"2022-06-19T12:03:41.324832","REV_AT_EPOCH":"7424","DECAY_DATE":null,"PERIOD":"94.095","INCLINATION":"53.0537","BSTAR":"-0.00008221300000","REF_FRAME":"TEME","GP_ID":"206415109","TLE_LINE2":"2 47737  53.0537  98.9126 0002307  44.8172 315.3013 15.30367978 74248","CENTER_NAME":"EARTH","RCS_SIZE":"LARGE","EPHEMERIS_TYPE":"0","MEAN_MOTION_DOT":"-0.00002808","MEAN_ANOMALY":"315.3013"}];
